{"_default": { "5": {"norad_id": "43881", "name": "D-STAR ONE SPARROW", "tle1": "1 43881U 18111F   26162.08988774  .00138135  00000-0  10146-2 0  9999", "tle2": "2 43881  97.6115 102.3584 0004611 103.2888 256.8889 15.72684748410418", "object_type": "PAYLOAD", "criticality_score": 9.0, "last_updated": "2026-06-11T13:56:27.956741+00:00", "maneuver_count": 0}, "6": {"norad_id": "43790", "name": "EAGLET 1", "tle1": "1 43790U 18099AJ  26162.10027979  .00003650  00000-0  21071-3 0  9990", "tle2": "2 43790  97.4234 211.9299 0011286  15.3419 344.8152 15.12892698411417", "object_type": "PAYLOAD", "criticality_score": 9.0, "last_updated": "2026-06-11T13:56:27.956741+00:00", "maneuver_count": 0}, "7": {"norad_id": "43773", "name": "RANGE A", "tle1": "1 43773U 18099R   26162.09499031  .00003740  00000-0  21319-3 0  9996", "tle2": "2 43773  97.3971 204.8523 0010510  18.2863 341.8745 15.13336974411573", "object_type": "PAYLOAD", "criticality_score": 9.0, "last_updated": "2026-06-11T13:56:27.956741+00:00", "maneuver_count": 0}, "8": {"norad_id": "43770", "name": "AO-95", "tle1": "1 43770U 18099N   26162.11310128  .00010727  00000-0  41211-3 0  9991", "tle2": "2 43770  97.4393 222.3819 0008614  20.0469 340.1107 15.26583130412293", "object_type": "PAYLOAD", "criticality_score": 9.0, "last_updated": "2026-06-11T13:56:27.956741+00:00", "maneuver_count": 0}, "69": {"norad_id": "43880", "name": "UWE-4", "tle1": "1 43880U 18111E   26162.06603225  .00030336  00000-0  62723-3 0  9994", "tle2": "2 43880  97.5852  90.1763 0006667   7.8986 352.2366 15.45743461409831", "object_type": "PAYLOAD", "criticality_score": 9.0, "last_updated": "2026-06-11T13:56:27.956741+00:00", "maneuver_count": 0}, "70": {"norad_id": "43804", "name": "SUOMI100", "tle1": "1 43804U 18099AY  26162.11735181  .00011134  00000-0  40630-3 0  9996", "tle2": "2 43804  97.4191 222.5335 0008433 304.5963  55.4481 15.28276895412492", "object_type": "PAYLOAD", "criticality_score": 9.0, "last_updated": "2026-06-11T13:56:27.956741+00:00", "maneuver_count": 0}, "71": {"norad_id": "43798", "name": "ASTROCAST-01", "tle1": "1 43798U 18099AS  26162.19034742  .00029228  00000-0  53795-3 0  9990", "tle2": "2 43798  97.4383 240.5021 0004710 226.3493 133.7368 15.49134296413500", "object_type": "PAYLOAD", "criticality_score": 9.0, "last_updated": "2026-06-11T13:56:27.956741+00:00", "maneuver_count": 0}, "72": {"norad_id": "43786", "name": "ITASAT", "tle1": "1 43786U 18099AE  26162.09302702  .00006474  00000-0  31210-3 0  9996", "tle2": "2 43786  97.4034 213.7264 0012787  21.6014 338.5758 15.18980538411981", "object_type": "PAYLOAD", "criticality_score": 9.0, "last_updated": "2026-06-11T13:56:27.956741+00:00", "maneuver_count": 0}, "73": {"norad_id": "43784", "name": "SNUGLITE", "tle1": "1 43784U 18099AC  26162.11537671  .00010460  00000-0  39674-3 0  9994", "tle2": "2 43784  97.3877 216.4553 0001521 337.6782  22.4390 15.27045448412399", "object_type": "PAYLOAD", "criticality_score": 9.0, "last_updated": "2026-06-11T13:56:27.956741+00:00", "maneuver_count": 0}, "74": {"norad_id": "43782", "name": "SNUSAT-2", "tle1": "1 43782U 18099AA  26162.08669346  .00007553  00000-0  33591-3 0  9994", "tle2": "2 43782  97.4070 215.5641 0008952 323.4786  36.5839 15.21747187412109", "object_type": "PAYLOAD", "criticality_score": 9.0, "last_updated": "2026-06-11T13:56:27.956741+00:00", "maneuver_count": 0}, "75": {"norad_id": "43772", "name": "OBJECT Q", "tle1": "1 43772U 18099Q   26162.18445765  .00338835  43330-4  12681-2 0  9994", "tle2": "2 43772  97.4136 243.1748 0008084 260.3680  99.6678 15.87841677413714", "object_type": "PAYLOAD", "criticality_score": 9.0, "last_updated": "2026-06-11T13:56:27.956741+00:00", "maneuver_count": 0}, "103": {"norad_id": "43768", "name": "AISTECHSAT-2", "tle1": "1 43768U 18099L   26162.08022116  .00005357  00000-0  28722-3 0  9996", "tle2": "2 43768  97.4301 210.2477 0003648 338.3764  21.7314 15.15387884411354", "object_type": "PAYLOAD", "criticality_score": 9.0, "last_updated": "2026-06-11T13:56:27.956741+00:00", "maneuver_count": 0}, "104": {"norad_id": "43758", "name": "MINXSS-2", "tle1": "1 43758U 18099A   26162.20446820  .00029910  00000-0  60280-3 0  9997", "tle2": "2 43758  97.4545 238.3154 0006264 280.3694  79.6849 15.46496855413205", "object_type": "PAYLOAD", "criticality_score": 9.0, "last_updated": "2026-06-11T13:56:27.956741+00:00", "maneuver_count": 0}, "133": {"norad_id": "43879", "name": "ISAT", "tle1": "1 43879U 18111D   26162.08703743  .00087482  00000-0  91371-3 0  9995", "tle2": "2 43879  97.5881  96.8435 0001460  55.1324 305.0072 15.64205327410217", "object_type": "PAYLOAD", "criticality_score": 9.0, "last_updated": "2026-06-11T13:56:27.956741+00:00", "maneuver_count": 0}, "134": {"norad_id": "43809", "name": "CENTAURI-1", "tle1": "1 43809U 18099BD  26162.13495430  .00004701  00000-0  24555-3 0  9993", "tle2": "2 43809  97.4226 213.9843 0013664 356.2028   3.9099 15.16305866411582", "object_type": "PAYLOAD", "criticality_score": 9.0, "last_updated": "2026-06-11T13:56:27.956741+00:00", "maneuver_count": 0}, "135": {"norad_id": "43803", "name": "JY1SAT", "tle1": "1 43803U 18099AX  26162.15801633  .00013564  00000-0  42148-3 0  9990", "tle2": "2 43803  97.4137 224.9718 0004125 291.9948  68.0856 15.33460341412705", "object_type": "PAYLOAD", "criticality_score": 9.0, "last_updated": "2026-06-11T13:56:27.956741+00:00", "maneuver_count": 0}, "136": {"norad_id": "43792", "name": "ESEO", "tle1": "1 43792U 18099AL  26161.86085478  .00001835  00000-0  13604-3 0  9998", "tle2": "2 43792  97.3965 199.5197 0011984   1.3380 358.7877 15.04221908410850", "object_type": "PAYLOAD", "criticality_score": 9.0, "last_updated": "2026-06-11T13:56:27.956741+00:00", "maneuver_count": 0}, "196": {"norad_id": "43943", "name": "JILIN-01-09", "tle1": "1 43943U 19005B   26162.25709986  .00003856  00000-0  17979-3 0  9999", "tle2": "2 43943  97.4735 257.2705 0003771 106.4348 253.7302 15.20462184408245", "object_type": "PAYLOAD", "criticality_score": 9.0, "last_updated": "2026-06-11T13:56:27.956741+00:00", "maneuver_count": 0}, "197": {"norad_id": "43946", "name": "JILIN-01-10", "tle1": "1 43946U 19005E   26162.28943055  .00004981  00000-0  19854-3 0  9996", "tle2": "2 43946  97.4780 261.0940 0006681 304.9110  55.1500 15.25658558408417", "object_type": "PAYLOAD", "criticality_score": 9.0, "last_updated": "2026-06-11T13:56:27.956741+00:00", "maneuver_count": 0}, "212": {"norad_id": "43759", "name": "SIRION PATHFINDER-2", "tle1": "1 43759U 18099B   26162.03730750  .00003984  00000-0  21986-3 0  9990", "tle2": "2 43759  97.4258 211.2409 0007655 330.3363  29.7434 15.14493949411697", "object_type": "PAYLOAD", "criticality_score": 9.0, "last_updated": "2026-06-11T13:56:27.956741+00:00", "maneuver_count": 0}, "236": {"norad_id": "43820", "name": "SEAHAWK-1", "tle1": "1 43820U 18099BQ  26162.09076198  .00008290  00000-0  35823-3 0  9994", "tle2": "2 43820  97.3968 214.6693 0007212 340.2698  19.8259 15.22708620411605", "object_type": "PAYLOAD", "criticality_score": 9.0, "last_updated": "2026-06-11T13:56:27.956741+00:00", "maneuver_count": 0}, "269": {"norad_id": "43834", "name": "OBJECT D", "tle1": "1 43834U 18102D   26162.27753547  .00061479  00000-0  58817-3 0  9990", "tle2": "2 43834  97.3437 251.1589 0003588 103.9175 256.2484 15.66508383416320", "object_type": "PAYLOAD", "criticality_score": 9.0, "last_updated": "2026-06-11T13:56:27.956741+00:00", "maneuver_count": 0}, "272": {"norad_id": "43812", "name": "GLOBAL-2", "tle1": "1 43812U 18099BG  26162.10547511  .00003011  00000-0  19611-3 0  9992", "tle2": "2 43812  97.3563 198.8718 0006404 160.1762 199.9717 15.08637706410991", "object_type": "PAYLOAD", "criticality_score": 9.0, "last_updated": "2026-06-11T13:56:27.956741+00:00", "maneuver_count": 0}, "395": {"norad_id": "43831", "name": "SAUDISAT 5A", "tle1": "1 43831U 18102A   26162.27103837  .00004572  00000-0  16991-3 0  9996", "tle2": "2 43831  97.3075 223.9659 0010625 147.4232 212.7666 15.27985441414774", "object_type": "PAYLOAD", "criticality_score": 9.0, "last_updated": "2026-06-11T13:56:27.956741+00:00", "maneuver_count": 0}, "396": {"norad_id": "43833", "name": "SAUDISAT 5B", "tle1": "1 43833U 18102C   26162.29088244  .00004380  00000-0  16160-3 0  9999", "tle2": "2 43833  97.3182 227.0443 0011275 149.9104 210.2786 15.28245557414895", "object_type": "PAYLOAD", "criticality_score": 9.0, "last_updated": "2026-06-11T13:56:27.956741+00:00", "maneuver_count": 0}, "418": {"norad_id": "44047", "name": "EGYPTSAT A", "tle1": "1 44047U 19008A   26162.29853453  .00000734  00000-0  12393-3 0  9998", "tle2": "2 44047  98.0122 227.1400 0001230  93.8695 266.2653 14.72301325392377", "object_type": "PAYLOAD", "criticality_score": 9.0, "last_updated": "2026-06-11T13:56:27.956741+00:00", "maneuver_count": 0}, "461": {"norad_id": "44078", "name": "EMISAT", "tle1": "1 44078U 19018A   26162.32250817  .00000108  00000-0  44761-4 0  9992", "tle2": "2 44078  98.4649 221.1550 0017450 233.2063 126.7527 14.43684342379218", "object_type": "PAYLOAD", "criticality_score": 9.0, "last_updated": "2026-06-11T13:56:27.956741+00:00", "maneuver_count": 0}, "609": {"norad_id": "43752", "name": "COSMOS 2531", "tle1": "1 43752U 18097B   26162.28136108 -.00000065  00000-0 -53837-3 0  9994", "tle2": "2 43752  82.5191 227.0018 0017853  70.4965 289.8041 12.42912327341579", "object_type": "PAYLOAD", "criticality_score": 9.0, "last_updated": "2026-06-11T13:56:27.956741+00:00", "maneuver_count": 0}, "610": {"norad_id": "43753", "name": "COSMOS 2532", "tle1": "1 43753U 18097C   26162.30962262 -.00000043  00000-0 -38610-3 0  9994", "tle2": "2 43753  82.5135 225.7730 0019247  72.3565 287.9614 12.42909339341541", "object_type": "PAYLOAD", "criticality_score": 9.0, "last_updated": "2026-06-11T13:56:27.956741+00:00", "maneuver_count": 0}, "633": {"norad_id": "43796", "name": "THEA", "tle1": "1 43796U 18099AQ  26162.13925286  .00015326  00000-0  45591-3 0  9993", "tle2": "2 43796  97.4448 231.7734 0005935 310.7788  49.2939 15.34809566411762", "object_type": "PAYLOAD", "criticality_score": 9.0, "last_updated": "2026-06-11T13:56:27.956741+00:00", "maneuver_count": 0}}}