OBJECT_NAME,OBJECT_ID,EPOCH,MEAN_MOTION,ECCENTRICITY,INCLINATION,RA_OF_ASC_NODE,ARG_OF_PERICENTER,MEAN_ANOMALY,EPHEMERIS_TYPE,CLASSIFICATION_TYPE,NORAD_CAT_ID,ELEMENT_SET_NO,REV_AT_EPOCH,BSTAR,MEAN_MOTION_DOT,MEAN_MOTION_DDOT
COSMOS 2531 (RODNIK-S 17),2018-097B,2026-06-11T06:45:09.597312,12.42912327,.00178533,82.5191,227.0018,70.4965,289.8041,0,U,43752,999,34157,-.53836637E-3,-.65E-6,0
COSMOS 2532 (RODNIK-S 18),2018-097C,2026-06-11T07:25:51.394368,12.42909339,.00192472,82.5135,225.7730,72.3565,287.9614,0,U,43753,999,34154,-.38610066E-3,-.43E-6,0
MINXSS-2,2018-099A,2026-06-11T04:54:26.052480,15.46496855,.0006264,97.4545,238.3154,280.3694,79.6849,0,U,43758,999,41320,.60279588E-3,.2991E-3,0
SIRION PATHFINDER-2,2018-099B,2026-06-11T00:53:43.368000,15.14493949,.0007655,97.4258,211.2409,330.3363,29.7434,0,U,43759,999,41169,.21986016E-3,.3984E-4,0
AISTECHSAT 2,2018-099L,2026-06-11T01:55:31.108224,15.15387884,.00036482,97.4301,210.2477,338.3764,21.7314,0,U,43768,999,41135,.2872232E-3,.5357E-4,0
FOX-1CLIFF (AO-95),2018-099N,2026-06-11T02:42:51.950592,15.26583130,.00086139,97.4393,222.3819,20.0469,340.1107,0,U,43770,999,41229,.4121126E-3,.10727E-3,0
2018-099Q,2018-099Q,2026-06-11T04:25:37.140960,15.87841677,.00080839,97.4136,243.1748,260.3680,99.6678,0,U,43772,999,41371,.12680737E-2,.338835E-2,.43329954E-4
RANGE-A,2018-099R,2026-06-11T02:16:47.162784,15.13336974,.00105096,97.3971,204.8523,18.2863,341.8745,0,U,43773,999,41157,.21319445E-3,.374E-4,0
SNUSAT-2,2018-099AA,2026-06-11T02:04:50.314944,15.21747187,.00089515,97.4070,215.5641,323.4786,36.5839,0,U,43782,999,41210,.33590813E-3,.7553E-4,0
SNUGLITE,2018-099AC,2026-06-11T02:46:08.547744,15.27045448,.00015211,97.3877,216.4553,337.6782,22.4390,0,U,43784,999,41239,.39674216E-3,.1046E-3,0
ITASAT,2018-099AE,2026-06-11T02:13:57.534528,15.18980538,.00127865,97.4034,213.7264,21.6014,338.5758,0,U,43786,999,41198,.31209576E-3,.6474E-4,0
EAGLET-I,2018-099AJ,2026-06-11T02:24:24.173856,15.12892698,.0011286,97.4234,211.9299,15.3419,344.8152,0,U,43790,999,41141,.21071366E-3,.365E-4,0
ESEO,2018-099AL,2026-06-10T20:39:37.852992,15.04221908,.00119843,97.3965,199.5197,1.3380,358.7877,0,U,43792,999,41085,.13603649E-3,.1835E-4,0
THEA,2018-099AQ,2026-06-11T03:20:31.447104,15.34809566,.0005935,97.4448,231.7734,310.7788,49.2939,0,U,43796,999,41176,.45591111E-3,.15326E-3,0
ASTROCAST 0.1,2018-099AS,2026-06-11T04:34:06.017088,15.49134296,.00047105,97.4383,240.5021,226.3493,133.7368,0,U,43798,999,41350,.53795276E-3,.29228E-3,0
JY1SAT (JO-97),2018-099AX,2026-06-11T03:47:32.610912,15.33460341,.00041252,97.4137,224.9718,291.9948,68.0856,0,U,43803,999,41270,.42147898E-3,.13564E-3,0
SUOMI-100,2018-099AY,2026-06-11T02:48:59.196384,15.28276895,.00084335,97.4191,222.5335,304.5963,55.4481,0,U,43804,999,41249,.40630478E-3,.11134E-3,0
CENTAURI-1,2018-099BD,2026-06-11T03:14:20.051520,15.16305866,.00136637,97.4226,213.9843,356.2028,3.9099,0,U,43809,999,41158,.2455474E-3,.4701E-4,0
GLOBAL-2,2018-099BG,2026-06-11T02:31:53.049504,15.08637706,.00064044,97.3563,198.8718,160.1762,199.9717,0,U,43812,999,41099,.19610808E-3,.3011E-4,0
SEAHAWK-1,2018-099BQ,2026-06-11T02:10:41.835072,15.22708620,.00072118,97.3968,214.6693,340.2698,19.8259,0,U,43820,999,41160,.35822877E-3,.829E-4,0
SAUDISAT 5A,2018-102A,2026-06-11T06:30:17.715168,15.27985441,.00106247,97.3075,223.9659,147.4232,212.7666,0,U,43831,999,41477,.16990682E-3,.4572E-4,0
SAUDISAT 5B,2018-102C,2026-06-11T06:58:52.242816,15.28245557,.00112747,97.3182,227.0443,149.9104,210.2786,0,U,43833,999,41489,.16159692E-3,.438E-4,0
2018-102D,2018-102D,2026-06-11T06:39:39.064608,15.66508383,.00035881,97.3437,251.1589,103.9175,256.2484,0,U,43834,999,41632,.58817005E-3,.61479E-3,0
ISAT,2018-111D,2026-06-11T02:05:20.033952,15.64205327,.00014596,97.5881,96.8435,55.1324,305.0072,0,U,43879,999,41021,.91371244E-3,.87482E-3,0
UWE-4,2018-111E,2026-06-11T01:35:05.186400,15.45743461,.00066668,97.5852,90.1763,7.8986,352.2366,0,U,43880,999,40983,.62722516E-3,.30336E-3,0
D-STAR ONE (SPARROW),2018-111F,2026-06-11T02:09:26.300736,15.72684748,.0004611,97.6115,102.3584,103.2888,256.8889,0,U,43881,999,41041,.10145738E-2,.138135E-2,0
JILIN-1 09,2019-005B,2026-06-11T06:10:13.427904,15.20462184,.00037705,97.4735,257.2705,106.4348,253.7302,0,U,43943,999,40824,.17978606E-3,.3856E-4,0
JILIN-1 10,2019-005E,2026-06-11T06:56:46.799520,15.25658558,.00066807,97.4780,261.0940,304.9110,55.1500,0,U,43946,999,40841,.19853589E-3,.4981E-4,0
EGYPTSAT-A (MISRSAT-A),2019-008A,2026-06-11T07:09:53.383392,14.72301325,.00012297,98.0122,227.1400,93.8695,266.2653,0,U,44047,999,39237,.12393447E-3,.734E-5,0
EMISAT,2019-018A,2026-06-11T07:44:24.705888,14.43684342,.00174498,98.4649,221.1550,233.2063,126.7527,0,U,44078,999,37921,.44760571E-4,.108E-5,0
